{"type":"FeatureCollection","features":[{"type":"Feature","geometry":{"type":"Point","coordinates":[151.09835973,-33.70347479]},"properties":{"name":"Hornsby","dailyTaps":17890,"platformRatio":70.79,"nonPlatformRatio":257.03}},{"type":"Feature","geometry":{"type":"Point","coordinates":[151.15323454,-33.62338518]},"properties":{"name":"Berowra","dailyTaps":1658,"platformRatio":21.25,"nonPlatformRatio":46.71}},{"type":"Feature","geometry":{"type":"Point","coordinates":[151.08692825,-33.79962625]},"properties":{"name":"Denistone","dailyTaps":736,"platformRatio":9.19,"nonPlatformRatio":164.79}},{"type":"Feature","geometry":{"type":"Point","coordinates":[151.09019218,-33.80719476]},"properties":{"name":"West Ryde","dailyTaps":6896,"platformRatio":74.26,"nonPlatformRatio":129.54}},{"type":"Feature","geometry":{"type":"Point","coordinates":[151.08229721,-33.79030086]},"properties":{"name":"Eastwood","dailyTaps":11033,"platformRatio":118.81,"nonPlatformRatio":191.66}},{"type":"Feature","geometry":{"type":"Point","coordinates":[150.90708043,-33.76854404]},"properties":{"name":"Blacktown","dailyTaps":22953,"platformRatio":99.96,"nonPlatformRatio":146.63}},{"type":"Feature","geometry":{"type":"Point","coordinates":[151.005325,-33.81749025]},"properties":{"name":"Parramatta","dailyTaps":64464,"platformRatio":238.52,"nonPlatformRatio":253.93}},{"type":"Feature","geometry":{"type":"Point","coordinates":[151.05722202,-34.03175379]},"properties":{"name":"Sutherland","dailyTaps":10313,"platformRatio":62.09,"nonPlatformRatio":250.51}},{"type":"Feature","geometry":{"type":"Point","coordinates":[151.05131573,-34.04522117]},"properties":{"name":"Loftus","dailyTaps":536,"platformRatio":10.63,"nonPlatformRatio":109.29}},{"type":"Feature","geometry":{"type":"Point","coordinates":[151.01486023,-34.06770196]},"properties":{"name":"Engadine","dailyTaps":1664,"platformRatio":32.74,"nonPlatformRatio":157.5}},{"type":"Feature","geometry":{"type":"Point","coordinates":[151.00833242,-34.08791879]},"properties":{"name":"Heathcote","dailyTaps":731,"platformRatio":14.38,"nonPlatformRatio":308.8}},{"type":"Feature","geometry":{"type":"Point","coordinates":[150.99454839,-34.13490804]},"properties":{"name":"Waterfall","dailyTaps":614,"platformRatio":8.8,"nonPlatformRatio":259.52}},{"type":"Feature","geometry":{"type":"Point","coordinates":[151.31860852,-33.45091719]},"properties":{"name":"Tascott","dailyTaps":133,"platformRatio":5.58,"nonPlatformRatio":12.44}},{"type":"Feature","geometry":{"type":"Point","coordinates":[151.32841514,-33.44625901]},"properties":{"name":"Point Clare","dailyTaps":195,"platformRatio":8.19,"nonPlatformRatio":14.92}},{"type":"Feature","geometry":{"type":"Point","coordinates":[151.3417336,-33.42348495]},"properties":{"name":"Gosford","dailyTaps":6311,"platformRatio":124.56,"nonPlatformRatio":86.29}},{"type":"Feature","geometry":{"type":"Point","coordinates":[151.35458344,-33.38307663]},"properties":{"name":"Niagara Park","dailyTaps":136,"platformRatio":4.71,"nonPlatformRatio":28.94}},{"type":"Feature","geometry":{"type":"Point","coordinates":[151.37017048,-33.38209529]},"properties":{"name":"Lisarow","dailyTaps":186,"platformRatio":6.43,"nonPlatformRatio":18.69}},{"type":"Feature","geometry":{"type":"Point","coordinates":[151.34452641,-33.39461057]},"properties":{"name":"Narara","dailyTaps":291,"platformRatio":9.86,"nonPlatformRatio":29.72}},{"type":"Feature","geometry":{"type":"Point","coordinates":[151.32330628,-33.48572837]},"properties":{"name":"Woy Woy","dailyTaps":4985,"platformRatio":115.29,"nonPlatformRatio":146.32}},{"type":"Feature","geometry":{"type":"Point","coordinates":[151.31850646,-33.46639025]},"properties":{"name":"Koolewong","dailyTaps":84,"platformRatio":3.5,"nonPlatformRatio":6.41}},{"type":"Feature","geometry":{"type":"Point","coordinates":[151.36999584,-33.35974907]},"properties":{"name":"Ourimbah","dailyTaps":237,"platformRatio":8.01,"nonPlatformRatio":19.66}},{"type":"Feature","geometry":{"type":"Point","coordinates":[151.42020531,-33.30772394]},"properties":{"name":"Tuggerah","dailyTaps":1659,"platformRatio":35.96,"nonPlatformRatio":36.57}},{"type":"Feature","geometry":{"type":"Point","coordinates":[151.42523404,-33.28539097]},"properties":{"name":"Wyong","dailyTaps":1968,"platformRatio":41.05,"nonPlatformRatio":47.42}},{"type":"Feature","geometry":{"type":"Point","coordinates":[151.48814873,-33.10896063]},"properties":{"name":"Morisset","dailyTaps":937,"platformRatio":25.83,"nonPlatformRatio":82.64}},{"type":"Feature","geometry":{"type":"Point","coordinates":[151.58094353,-32.98563743]},"properties":{"name":"Fassifern","dailyTaps":611,"platformRatio":16.04,"nonPlatformRatio":41.92}},{"type":"Feature","geometry":{"type":"Point","coordinates":[151.60347199,-32.96253817]},"properties":{"name":"Teralba","dailyTaps":63,"platformRatio":2.59,"nonPlatformRatio":17.28}},{"type":"Feature","geometry":{"type":"Point","coordinates":[151.66266152,-32.94142086]},"properties":{"name":"Cardiff","dailyTaps":1252,"platformRatio":34.53,"nonPlatformRatio":34.85}},{"type":"Feature","geometry":{"type":"Point","coordinates":[151.72020335,-32.93365273]},"properties":{"name":"Adamstown","dailyTaps":141,"platformRatio":5.76,"nonPlatformRatio":14.11}},{"type":"Feature","geometry":{"type":"Point","coordinates":[151.73499102,-32.92272405]},"properties":{"name":"Broadmeadow","dailyTaps":1317,"platformRatio":34.59,"nonPlatformRatio":57.92}},{"type":"Feature","geometry":{"type":"Point","coordinates":[151.75908192,-32.92404091]},"properties":{"name":"Newcastle Interchange","dailyTaps":2780,"platformRatio":37.17,"nonPlatformRatio":48.38}},{"type":"Feature","geometry":{"type":"Point","coordinates":[151.748498,-32.91846324]},"properties":{"name":"Hamilton","dailyTaps":991,"platformRatio":3.57,"nonPlatformRatio":73.2}},{"type":"Feature","geometry":{"type":"Point","coordinates":[151.55209853,-32.73800633]},"properties":{"name":"Maitland","dailyTaps":566,"platformRatio":2.33,"nonPlatformRatio":30.45}},{"type":"Feature","geometry":{"type":"Point","coordinates":[151.6582626,-32.79929092]},"properties":{"name":"Beresfield","dailyTaps":211,"platformRatio":0.87,"nonPlatformRatio":68.82}},{"type":"Feature","geometry":{"type":"Point","coordinates":[151.63974686,-32.78352147]},"properties":{"name":"Thornton","dailyTaps":345,"platformRatio":1.43,"nonPlatformRatio":69.94}},{"type":"Feature","geometry":{"type":"Point","coordinates":[151.59408427,-32.75104739]},"properties":{"name":"Victoria Street","dailyTaps":395,"platformRatio":1.64,"nonPlatformRatio":28.63}},{"type":"Feature","geometry":{"type":"Point","coordinates":[151.16543007,-32.57195563]},"properties":{"name":"Singleton","dailyTaps":42,"platformRatio":1.85,"nonPlatformRatio":15.32}},{"type":"Feature","geometry":{"type":"Point","coordinates":[150.89004029,-32.2673115]},"properties":{"name":"Muswellbrook","dailyTaps":30,"platformRatio":1.42,"nonPlatformRatio":10.15}},{"type":"Feature","geometry":{"type":"Point","coordinates":[151.3456353,-32.66226828]},"properties":{"name":"Branxton","dailyTaps":12,"platformRatio":0.55,"nonPlatformRatio":23}},{"type":"Feature","geometry":{"type":"Point","coordinates":[150.89204155,-32.1670942]},"properties":{"name":"Aberdeen","dailyTaps":3,"platformRatio":0.2,"nonPlatformRatio":4}},{"type":"Feature","geometry":{"type":"Point","coordinates":[150.86693959,-32.04641035]},"properties":{"name":"Scone","dailyTaps":24,"platformRatio":1.47,"nonPlatformRatio":61.17}},{"type":"Feature","geometry":{"type":"Point","coordinates":[150.88819093,-34.42701768]},"properties":{"name":"Wollongong","dailyTaps":2391,"platformRatio":40.19,"nonPlatformRatio":142.05}},{"type":"Feature","geometry":{"type":"Point","coordinates":[150.88813754,-34.47297413]},"properties":{"name":"Port Kembla North","dailyTaps":20,"platformRatio":0.98,"nonPlatformRatio":20.45}},{"type":"Feature","geometry":{"type":"Point","coordinates":[150.90236909,-34.4771784]},"properties":{"name":"Port Kembla","dailyTaps":88,"platformRatio":4.34,"nonPlatformRatio":25.74}},{"type":"Feature","geometry":{"type":"Point","coordinates":[150.99425973,-34.17705075]},"properties":{"name":"Helensburgh","dailyTaps":417,"platformRatio":10.06,"nonPlatformRatio":121.55}},{"type":"Feature","geometry":{"type":"Point","coordinates":[151.00583131,-34.21078659]},"properties":{"name":"Otford","dailyTaps":34,"platformRatio":1.78,"nonPlatformRatio":56.33}},{"type":"Feature","geometry":{"type":"Point","coordinates":[150.97726898,-34.24223632]},"properties":{"name":"Coalcliff","dailyTaps":16,"platformRatio":0.85,"nonPlatformRatio":5.36}},{"type":"Feature","geometry":{"type":"Point","coordinates":[150.96541923,-34.26552566]},"properties":{"name":"Scarborough","dailyTaps":19,"platformRatio":0.97,"nonPlatformRatio":5.72}},{"type":"Feature","geometry":{"type":"Point","coordinates":[150.91891203,-34.31801562]},"properties":{"name":"Thirroul","dailyTaps":1138,"platformRatio":22.3,"nonPlatformRatio":494.8}},{"type":"Feature","geometry":{"type":"Point","coordinates":[150.91475593,-34.33443113]},"properties":{"name":"Bulli","dailyTaps":162,"platformRatio":6.62,"nonPlatformRatio":162.3}},{"type":"Feature","geometry":{"type":"Point","coordinates":[150.91513824,-34.349647]},"properties":{"name":"Woonona","dailyTaps":132,"platformRatio":5.37,"nonPlatformRatio":21.72}},{"type":"Feature","geometry":{"type":"Point","coordinates":[150.91011528,-34.36264805]},"properties":{"name":"Bellambi","dailyTaps":122,"platformRatio":4.99,"nonPlatformRatio":262.21}},{"type":"Feature","geometry":{"type":"Point","coordinates":[150.90134686,-34.38441889]},"properties":{"name":"Towradgi","dailyTaps":90,"platformRatio":3.68,"nonPlatformRatio":73.19}},{"type":"Feature","geometry":{"type":"Point","coordinates":[150.82043996,-34.57203376]},"properties":{"name":"Oak Flats","dailyTaps":500,"platformRatio":16.47,"nonPlatformRatio":42.28}},{"type":"Feature","geometry":{"type":"Point","coordinates":[150.84470802,-34.59134673]},"properties":{"name":"Shellharbour Junction","dailyTaps":220,"platformRatio":7.24,"nonPlatformRatio":199.82}},{"type":"Feature","geometry":{"type":"Point","coordinates":[150.81760282,-34.47018181]},"properties":{"name":"Kembla Grange","dailyTaps":12,"platformRatio":2.88,"nonPlatformRatio":0.91}},{"type":"Feature","geometry":{"type":"Point","coordinates":[150.79181569,-34.49273841]},"properties":{"name":"Dapto","dailyTaps":617,"platformRatio":19.09,"nonPlatformRatio":60.93}},{"type":"Feature","geometry":{"type":"Point","coordinates":[150.85287255,-34.62628481]},"properties":{"name":"Minnamurra","dailyTaps":133,"platformRatio":4.39,"nonPlatformRatio":181.59}},{"type":"Feature","geometry":{"type":"Point","coordinates":[150.85384014,-34.65870177]},"properties":{"name":"Bombo","dailyTaps":53,"platformRatio":1.76,"nonPlatformRatio":55.17}},{"type":"Feature","geometry":{"type":"Point","coordinates":[150.8544551,-34.67266689]},"properties":{"name":"Kiama","dailyTaps":874,"platformRatio":8.33,"nonPlatformRatio":168}},{"type":"Feature","geometry":{"type":"Point","coordinates":[150.81760762,-34.74466196]},"properties":{"name":"Gerringong","dailyTaps":77,"platformRatio":1.03,"nonPlatformRatio":45.06}},{"type":"Feature","geometry":{"type":"Point","coordinates":[150.69669597,-34.78038712]},"properties":{"name":"Berry","dailyTaps":97,"platformRatio":1.29,"nonPlatformRatio":55.73}},{"type":"Feature","geometry":{"type":"Point","coordinates":[150.60978184,-34.85372077]},"properties":{"name":"Bomaderry","dailyTaps":369,"platformRatio":4.96,"nonPlatformRatio":40.6}},{"type":"Feature","geometry":{"type":"Point","coordinates":[150.81463149,-34.06355569]},"properties":{"name":"Campbelltown","dailyTaps":8631,"platformRatio":39.04,"nonPlatformRatio":87.68}},{"type":"Feature","geometry":{"type":"Point","coordinates":[150.79716422,-34.07199134]},"properties":{"name":"Macarthur","dailyTaps":4397,"platformRatio":20.7,"nonPlatformRatio":87.35}},{"type":"Feature","geometry":{"type":"Point","coordinates":[150.74500739,-34.10333234]},"properties":{"name":"Menangle Park","dailyTaps":23,"platformRatio":0.2,"nonPlatformRatio":14.6}},{"type":"Feature","geometry":{"type":"Point","coordinates":[150.7442869,-34.12554982]},"properties":{"name":"Menangle","dailyTaps":23,"platformRatio":0.21,"nonPlatformRatio":19.44}},{"type":"Feature","geometry":{"type":"Point","coordinates":[150.7103495,-34.18324664]},"properties":{"name":"Douglas Park","dailyTaps":31,"platformRatio":0.28,"nonPlatformRatio":52}},{"type":"Feature","geometry":{"type":"Point","coordinates":[150.6127122,-34.17917983]},"properties":{"name":"Picton","dailyTaps":184,"platformRatio":1.57,"nonPlatformRatio":36.32}},{"type":"Feature","geometry":{"type":"Point","coordinates":[150.58995766,-34.22352998]},"properties":{"name":"Tahmoor","dailyTaps":203,"platformRatio":1.73,"nonPlatformRatio":338.22}},{"type":"Feature","geometry":{"type":"Point","coordinates":[150.5800373,-34.29098717]},"properties":{"name":"Bargo","dailyTaps":68,"platformRatio":0.61,"nonPlatformRatio":82.08}},{"type":"Feature","geometry":{"type":"Point","coordinates":[150.44817385,-34.45259021]},"properties":{"name":"Mittagong","dailyTaps":221,"platformRatio":1.85,"nonPlatformRatio":55.71}},{"type":"Feature","geometry":{"type":"Point","coordinates":[150.54361194,-34.37157933]},"properties":{"name":"Yerrinbool","dailyTaps":21,"platformRatio":0.19,"nonPlatformRatio":17.3}},{"type":"Feature","geometry":{"type":"Point","coordinates":[150.41663309,-34.47817984]},"properties":{"name":"Bowral","dailyTaps":301,"platformRatio":2.52,"nonPlatformRatio":56.39}},{"type":"Feature","geometry":{"type":"Point","coordinates":[150.39785738,-34.49420535]},"properties":{"name":"Burradoo","dailyTaps":13,"platformRatio":0.12,"nonPlatformRatio":10.08}},{"type":"Feature","geometry":{"type":"Point","coordinates":[150.37174595,-34.54797724]},"properties":{"name":"Moss Vale","dailyTaps":211,"platformRatio":1.63,"nonPlatformRatio":181.17}},{"type":"Feature","geometry":{"type":"Point","coordinates":[150.29949924,-34.65596932]},"properties":{"name":"Bundanoon","dailyTaps":14,"platformRatio":0.7,"nonPlatformRatio":5.22}},{"type":"Feature","geometry":{"type":"Point","coordinates":[150.15821112,-34.69219784]},"properties":{"name":"Wingello","dailyTaps":3,"platformRatio":0.18,"nonPlatformRatio":6.25}},{"type":"Feature","geometry":{"type":"Point","coordinates":[150.21207796,-34.67229417]},"properties":{"name":"Penrose","dailyTaps":3,"platformRatio":0.18,"nonPlatformRatio":5.56}},{"type":"Feature","geometry":{"type":"Point","coordinates":[150.3174433,-34.61362739]},"properties":{"name":"Exeter","dailyTaps":6,"platformRatio":0.3,"nonPlatformRatio":33}},{"type":"Feature","geometry":{"type":"Point","coordinates":[150.00601372,-34.70961588]},"properties":{"name":"Marulan","dailyTaps":5,"platformRatio":0.25,"nonPlatformRatio":23.5}},{"type":"Feature","geometry":{"type":"Point","coordinates":[150.08618073,-34.7183627]},"properties":{"name":"Tallong","dailyTaps":3,"platformRatio":0.18,"nonPlatformRatio":7.69}},{"type":"Feature","geometry":{"type":"Point","coordinates":[149.71935426,-34.75829984]},"properties":{"name":"Goulburn","dailyTaps":64,"platformRatio":2.84,"nonPlatformRatio":11.51}},{"type":"Feature","geometry":{"type":"Point","coordinates":[150.75759387,-33.75916137]},"properties":{"name":"Werrington","dailyTaps":1783,"platformRatio":18.15,"nonPlatformRatio":136.82}},{"type":"Feature","geometry":{"type":"Point","coordinates":[150.72053259,-33.75842011]},"properties":{"name":"Kingswood","dailyTaps":3071,"platformRatio":31.25,"nonPlatformRatio":639.84}},{"type":"Feature","geometry":{"type":"Point","coordinates":[150.69651584,-33.75014862]},"properties":{"name":"Penrith","dailyTaps":10690,"platformRatio":74.95,"nonPlatformRatio":136.94}},{"type":"Feature","geometry":{"type":"Point","coordinates":[150.67142718,-33.74572534]},"properties":{"name":"Emu Plains","dailyTaps":1529,"platformRatio":23.53,"nonPlatformRatio":222.6}},{"type":"Feature","geometry":{"type":"Point","coordinates":[150.64280498,-33.77345788]},"properties":{"name":"Lapstone","dailyTaps":101,"platformRatio":3.44,"nonPlatformRatio":64.26}},{"type":"Feature","geometry":{"type":"Point","coordinates":[150.77518003,-33.76210254]},"properties":{"name":"St Marys","dailyTaps":6691,"platformRatio":65.73,"nonPlatformRatio":87.85}},{"type":"Feature","geometry":{"type":"Point","coordinates":[150.62104944,-33.76911515]},"properties":{"name":"Glenbrook","dailyTaps":543,"platformRatio":16,"nonPlatformRatio":361.98}},{"type":"Feature","geometry":{"type":"Point","coordinates":[150.60978672,-33.74374219]},"properties":{"name":"Blaxland","dailyTaps":603,"platformRatio":17.78,"nonPlatformRatio":44.7}},{"type":"Feature","geometry":{"type":"Point","coordinates":[150.60273514,-33.72140832]},"properties":{"name":"Warrimoo","dailyTaps":144,"platformRatio":4.9,"nonPlatformRatio":41.42}},{"type":"Feature","geometry":{"type":"Point","coordinates":[150.53493365,-33.6965933]},"properties":{"name":"Faulconbridge","dailyTaps":102,"platformRatio":3.69,"nonPlatformRatio":35.85}},{"type":"Feature","geometry":{"type":"Point","coordinates":[150.58374369,-33.70433308]},"properties":{"name":"Valley Heights","dailyTaps":83,"platformRatio":2.82,"nonPlatformRatio":29.19}},{"type":"Feature","geometry":{"type":"Point","coordinates":[150.56366276,-33.69905654]},"properties":{"name":"Springwood","dailyTaps":1270,"platformRatio":29.23,"nonPlatformRatio":70.71}},{"type":"Feature","geometry":{"type":"Point","coordinates":[150.48171549,-33.73567216]},"properties":{"name":"Woodford","dailyTaps":96,"platformRatio":3.47,"nonPlatformRatio":68.24}},{"type":"Feature","geometry":{"type":"Point","coordinates":[150.50520665,-33.71489917]},"properties":{"name":"Linden","dailyTaps":19,"platformRatio":0.69,"nonPlatformRatio":9.73}},{"type":"Feature","geometry":{"type":"Point","coordinates":[150.31166184,-33.71203514]},"properties":{"name":"Katoomba","dailyTaps":2125,"platformRatio":50.13,"nonPlatformRatio":352.26}},{"type":"Feature","geometry":{"type":"Point","coordinates":[150.28064561,-33.6735552]},"properties":{"name":"Medlow Bath","dailyTaps":52,"platformRatio":1.86,"nonPlatformRatio":8.95}},{"type":"Feature","geometry":{"type":"Point","coordinates":[150.42980295,-33.7191006]},"properties":{"name":"Lawson","dailyTaps":209,"platformRatio":7.58,"nonPlatformRatio":139.09}},{"type":"Feature","geometry":{"type":"Point","coordinates":[150.41500219,-33.72338686]},"properties":{"name":"Bullaburra","dailyTaps":69,"platformRatio":2.5,"nonPlatformRatio":53.05}},{"type":"Feature","geometry":{"type":"Point","coordinates":[150.25692324,-33.58820075]},"properties":{"name":"Mount Victoria","dailyTaps":139,"platformRatio":3.75,"nonPlatformRatio":18.14}},{"type":"Feature","geometry":{"type":"Point","coordinates":[149.907495,-33.52424309]},"properties":{"name":"Tarana","dailyTaps":6,"platformRatio":0.65,"nonPlatformRatio":9.22}},{"type":"Feature","geometry":{"type":"Point","coordinates":[150.156808,-33.48066213]},"properties":{"name":"Lithgow","dailyTaps":388,"platformRatio":12.09,"nonPlatformRatio":44.43}},{"type":"Feature","geometry":{"type":"Point","coordinates":[150.03184368,-33.48386625]},"properties":{"name":"Rydal","dailyTaps":3,"platformRatio":0.39,"nonPlatformRatio":10}},{"type":"Feature","geometry":{"type":"Point","coordinates":[149.5831806,-33.42559763]},"properties":{"name":"Bathurst","dailyTaps":139,"platformRatio":7.31,"nonPlatformRatio":27.15}},{"type":"Feature","geometry":{"type":"Point","coordinates":[150.93612251,-33.7743511]},"properties":{"name":"Seven Hills","dailyTaps":8463,"platformRatio":45.03,"nonPlatformRatio":203.77}},{"type":"Feature","geometry":{"type":"Point","coordinates":[150.96352165,-33.73461748]},"properties":{"name":"Norwest","dailyTaps":5580,"platformRatio":57.84,"nonPlatformRatio":177.32}},{"type":"Feature","geometry":{"type":"Point","coordinates":[150.94401959,-33.73056616]},"properties":{"name":"Bella Vista","dailyTaps":5506,"platformRatio":57.08,"nonPlatformRatio":223.23}},{"type":"Feature","geometry":{"type":"Point","coordinates":[151.00728849,-33.73162575]},"properties":{"name":"Castle Hill","dailyTaps":12814,"platformRatio":132.84,"nonPlatformRatio":141.02}},{"type":"Feature","geometry":{"type":"Point","coordinates":[150.98702465,-33.72791245]},"properties":{"name":"Hills Showground","dailyTaps":6877,"platformRatio":71.29,"nonPlatformRatio":188.41}},{"type":"Feature","geometry":{"type":"Point","coordinates":[150.93523145,-33.71337441]},"properties":{"name":"Kellyville","dailyTaps":6809,"platformRatio":70.58,"nonPlatformRatio":157.86}},{"type":"Feature","geometry":{"type":"Point","coordinates":[150.92416751,-33.69181177]},"properties":{"name":"Rouse Hill","dailyTaps":8627,"platformRatio":89.43,"nonPlatformRatio":81.26}},{"type":"Feature","geometry":{"type":"Point","coordinates":[150.90600569,-33.69163119]},"properties":{"name":"Tallawong","dailyTaps":12764,"platformRatio":132.31,"nonPlatformRatio":446.8}},{"type":"Feature","geometry":{"type":"Point","coordinates":[150.75891556,-33.60172876]},"properties":{"name":"East Richmond","dailyTaps":305,"platformRatio":6.59,"nonPlatformRatio":652.86}},{"type":"Feature","geometry":{"type":"Point","coordinates":[150.75264112,-33.59884642]},"properties":{"name":"Richmond","dailyTaps":1045,"platformRatio":22.61,"nonPlatformRatio":94.98}},{"type":"Feature","geometry":{"type":"Point","coordinates":[150.81121394,-33.61375217]},"properties":{"name":"Windsor","dailyTaps":1029,"platformRatio":22.27,"nonPlatformRatio":69.05}},{"type":"Feature","geometry":{"type":"Point","coordinates":[150.87377461,-33.70438029]},"properties":{"name":"Schofields","dailyTaps":6027,"platformRatio":74.74,"nonPlatformRatio":478.29}},{"type":"Feature","geometry":{"type":"Point","coordinates":[150.88623397,-33.72746287]},"properties":{"name":"Quakers Hill","dailyTaps":3420,"platformRatio":42.43,"nonPlatformRatio":265.09}},{"type":"Feature","geometry":{"type":"Point","coordinates":[150.86037985,-33.67926177]},"properties":{"name":"Riverstone","dailyTaps":1735,"platformRatio":37.56,"nonPlatformRatio":77.35}},{"type":"Feature","geometry":{"type":"Point","coordinates":[150.84464747,-33.77162507]},"properties":{"name":"Rooty Hill","dailyTaps":5333,"platformRatio":52.38,"nonPlatformRatio":1367.35}},{"type":"Feature","geometry":{"type":"Point","coordinates":[150.86869678,-33.76389763]},"properties":{"name":"Doonside","dailyTaps":3919,"platformRatio":38.5,"nonPlatformRatio":1152.61}},{"type":"Feature","geometry":{"type":"Point","coordinates":[150.82012586,-33.76955803]},"properties":{"name":"Mount Druitt","dailyTaps":8999,"platformRatio":88.4,"nonPlatformRatio":90.66}},{"type":"Feature","geometry":{"type":"Point","coordinates":[151.01186867,-33.83275764]},"properties":{"name":"Granville","dailyTaps":10351,"platformRatio":63.21,"nonPlatformRatio":376.4}},{"type":"Feature","geometry":{"type":"Point","coordinates":[150.99248668,-33.83668568]},"properties":{"name":"Merrylands","dailyTaps":9752,"platformRatio":80.11,"nonPlatformRatio":380.43}},{"type":"Feature","geometry":{"type":"Point","coordinates":[150.98439283,-33.85443792]},"properties":{"name":"Guildford","dailyTaps":4143,"platformRatio":34.05,"nonPlatformRatio":360.26}},{"type":"Feature","geometry":{"type":"Point","coordinates":[150.97105333,-33.86466386]},"properties":{"name":"Yennora","dailyTaps":1601,"platformRatio":13.16,"nonPlatformRatio":623.92}},{"type":"Feature","geometry":{"type":"Point","coordinates":[150.95725354,-33.87224505]},"properties":{"name":"Fairfield","dailyTaps":8385,"platformRatio":68.79,"nonPlatformRatio":135.68}},{"type":"Feature","geometry":{"type":"Point","coordinates":[150.94353766,-33.88732821]},"properties":{"name":"Canley Vale","dailyTaps":3511,"platformRatio":28.86,"nonPlatformRatio":548.66}},{"type":"Feature","geometry":{"type":"Point","coordinates":[150.93887636,-33.89474039]},"properties":{"name":"Cabramatta","dailyTaps":11990,"platformRatio":70.23,"nonPlatformRatio":445.74}},{"type":"Feature","geometry":{"type":"Point","coordinates":[150.89306653,-33.97220759]},"properties":{"name":"Glenfield","dailyTaps":8155,"platformRatio":37.6,"nonPlatformRatio":628.94}},{"type":"Feature","geometry":{"type":"Point","coordinates":[150.92732848,-33.92492704]},"properties":{"name":"Liverpool","dailyTaps":12966,"platformRatio":75.94,"nonPlatformRatio":90.82}},{"type":"Feature","geometry":{"type":"Point","coordinates":[150.85880158,-33.96932346]},"properties":{"name":"Edmondson Park","dailyTaps":6125,"platformRatio":54.09,"nonPlatformRatio":458.25}},{"type":"Feature","geometry":{"type":"Point","coordinates":[150.80817012,-33.95445703]},"properties":{"name":"Leppington","dailyTaps":6129,"platformRatio":54.1,"nonPlatformRatio":317.04}},{"type":"Feature","geometry":{"type":"Point","coordinates":[150.83060671,-34.05067661]},"properties":{"name":"Leumeah","dailyTaps":3529,"platformRatio":36.78,"nonPlatformRatio":225.7}},{"type":"Feature","geometry":{"type":"Point","coordinates":[150.87887723,-33.98483038]},"properties":{"name":"Macquarie Fields","dailyTaps":1339,"platformRatio":13.95,"nonPlatformRatio":872.93}},{"type":"Feature","geometry":{"type":"Point","coordinates":[150.86457694,-33.99748219]},"properties":{"name":"Ingleburn","dailyTaps":4499,"platformRatio":46.89,"nonPlatformRatio":331.6}},{"type":"Feature","geometry":{"type":"Point","coordinates":[150.84249432,-34.02744354]},"properties":{"name":"Minto","dailyTaps":4216,"platformRatio":43.95,"nonPlatformRatio":216.22}},{"type":"Feature","geometry":{"type":"Point","coordinates":[151.20620308,-33.88402424]},"properties":{"name":"Central","dailyTaps":135386,"platformRatio":86.82,"nonPlatformRatio":575.78}},{"type":"Feature","geometry":{"type":"Point","coordinates":[151.20692991,-33.87353896]},"properties":{"name":"Town Hall","dailyTaps":113595,"platformRatio":176.18,"nonPlatformRatio":583.94}},{"type":"Feature","geometry":{"type":"Point","coordinates":[151.2222282,-33.87448343]},"properties":{"name":"Kings Cross","dailyTaps":21042,"platformRatio":121.3,"nonPlatformRatio":552.77}},{"type":"Feature","geometry":{"type":"Point","coordinates":[151.24837675,-33.89119702]},"properties":{"name":"Bondi Junction","dailyTaps":33906,"platformRatio":195.46,"nonPlatformRatio":100.88}},{"type":"Feature","geometry":{"type":"Point","coordinates":[151.23625289,-33.87937104]},"properties":{"name":"Edgecliff","dailyTaps":11387,"platformRatio":65.64,"nonPlatformRatio":187.18}},{"type":"Feature","geometry":{"type":"Point","coordinates":[151.17937737,-33.89791301]},"properties":{"name":"Newtown","dailyTaps":15973,"platformRatio":94.33,"nonPlatformRatio":150.83}},{"type":"Feature","geometry":{"type":"Point","coordinates":[151.09010555,-33.81579356]},"properties":{"name":"Meadowbank","dailyTaps":7064,"platformRatio":80.64,"nonPlatformRatio":270.32}},{"type":"Feature","geometry":{"type":"Point","coordinates":[151.08208231,-33.77283671]},"properties":{"name":"Epping","dailyTaps":23581,"platformRatio":102.67,"nonPlatformRatio":283.42}},{"type":"Feature","geometry":{"type":"Point","coordinates":[151.10385716,-33.87710168]},"properties":{"name":"Burwood","dailyTaps":32711,"platformRatio":117.27,"nonPlatformRatio":186.17}},{"type":"Feature","geometry":{"type":"Point","coordinates":[151.09428565,-33.87167201]},"properties":{"name":"Strathfield","dailyTaps":37363,"platformRatio":76.38,"nonPlatformRatio":243.99}},{"type":"Feature","geometry":{"type":"Point","coordinates":[151.08704933,-33.83049189]},"properties":{"name":"Rhodes","dailyTaps":14735,"platformRatio":149.79,"nonPlatformRatio":214.69}},{"type":"Feature","geometry":{"type":"Point","coordinates":[151.04512981,-33.86375583]},"properties":{"name":"Lidcombe","dailyTaps":20785,"platformRatio":43.6,"nonPlatformRatio":351.68}},{"type":"Feature","geometry":{"type":"Point","coordinates":[151.03252488,-33.87178351]},"properties":{"name":"Berala","dailyTaps":3007,"platformRatio":24.11,"nonPlatformRatio":613.67}},{"type":"Feature","geometry":{"type":"Point","coordinates":[151.02401965,-33.8831901]},"properties":{"name":"Regents Park","dailyTaps":2092,"platformRatio":16.77,"nonPlatformRatio":139.75}},{"type":"Feature","geometry":{"type":"Point","coordinates":[151.03301684,-33.8494301]},"properties":{"name":"Auburn","dailyTaps":22820,"platformRatio":145.2,"nonPlatformRatio":881.09}},{"type":"Feature","geometry":{"type":"Point","coordinates":[150.95144002,-33.78738636]},"properties":{"name":"Toongabbie","dailyTaps":4136,"platformRatio":40.66,"nonPlatformRatio":315.76}},{"type":"Feature","geometry":{"type":"Point","coordinates":[151.01170402,-33.88527733]},"properties":{"name":"Sefton","dailyTaps":1217,"platformRatio":24.95,"nonPlatformRatio":9126}},{"type":"Feature","geometry":{"type":"Point","coordinates":[151.0002517,-33.8836589]},"properties":{"name":"Chester Hill","dailyTaps":1649,"platformRatio":33.82,"nonPlatformRatio":148.59}},{"type":"Feature","geometry":{"type":"Point","coordinates":[150.98489517,-33.88148108]},"properties":{"name":"Leightonfield","dailyTaps":397,"platformRatio":8.14,"nonPlatformRatio":626.89}},{"type":"Feature","geometry":{"type":"Point","coordinates":[150.97685942,-33.88083101]},"properties":{"name":"Villawood","dailyTaps":771,"platformRatio":15.81,"nonPlatformRatio":745.94}},{"type":"Feature","geometry":{"type":"Point","coordinates":[150.93509547,-33.91331588]},"properties":{"name":"Warwick Farm","dailyTaps":3368,"platformRatio":19.75,"nonPlatformRatio":886.37}},{"type":"Feature","geometry":{"type":"Point","coordinates":[150.95658976,-33.96319517]},"properties":{"name":"Holsworthy","dailyTaps":4067,"platformRatio":42.41,"nonPlatformRatio":296.84}},{"type":"Feature","geometry":{"type":"Point","coordinates":[151.08841509,-33.91722531]},"properties":{"name":"Belmore","dailyTaps":3,"platformRatio":null,"nonPlatformRatio":0.05}},{"type":"Feature","geometry":{"type":"Point","coordinates":[151.11873137,-33.91208682]},"properties":{"name":"Canterbury","dailyTaps":3,"platformRatio":null,"nonPlatformRatio":0.04}},{"type":"Feature","geometry":{"type":"Point","coordinates":[151.10345755,-33.91043503]},"properties":{"name":"Campsie","dailyTaps":3,"platformRatio":null,"nonPlatformRatio":0.02}},{"type":"Feature","geometry":{"type":"Point","coordinates":[151.07631124,-33.91996087]},"properties":{"name":"Lakemba","dailyTaps":3,"platformRatio":null,"nonPlatformRatio":0.04}},{"type":"Feature","geometry":{"type":"Point","coordinates":[151.06791697,-33.92276181]},"properties":{"name":"Wiley Park","dailyTaps":3,"platformRatio":null,"nonPlatformRatio":0.06}},{"type":"Feature","geometry":{"type":"Point","coordinates":[151.05554778,-33.92540504]},"properties":{"name":"Punchbowl","dailyTaps":3,"platformRatio":null,"nonPlatformRatio":0.04}},{"type":"Feature","geometry":{"type":"Point","coordinates":[151.02459877,-33.90721147]},"properties":{"name":"Yagoona","dailyTaps":1285,"platformRatio":16.92,"nonPlatformRatio":65.89}},{"type":"Feature","geometry":{"type":"Point","coordinates":[151.03428744,-33.91786888]},"properties":{"name":"Bankstown","dailyTaps":6137,"platformRatio":80.82,"nonPlatformRatio":22.25}},{"type":"Feature","geometry":{"type":"Point","coordinates":[151.14072187,-33.91094279]},"properties":{"name":"Dulwich Hill","dailyTaps":3,"platformRatio":null,"nonPlatformRatio":0.04}},{"type":"Feature","geometry":{"type":"Point","coordinates":[151.15335646,-33.9138684]},"properties":{"name":"Marrickville","dailyTaps":3,"platformRatio":null,"nonPlatformRatio":0.06}},{"type":"Feature","geometry":{"type":"Point","coordinates":[151.03217663,-33.95191691]},"properties":{"name":"Padstow","dailyTaps":3506,"platformRatio":40.5,"nonPlatformRatio":94.16}},{"type":"Feature","geometry":{"type":"Point","coordinates":[151.01519695,-33.95251787]},"properties":{"name":"Revesby","dailyTaps":7900,"platformRatio":49.52,"nonPlatformRatio":373.23}},{"type":"Feature","geometry":{"type":"Point","coordinates":[150.99826036,-33.95427746]},"properties":{"name":"Panania","dailyTaps":2199,"platformRatio":24.61,"nonPlatformRatio":132.46}},{"type":"Feature","geometry":{"type":"Point","coordinates":[150.98472867,-33.9618174]},"properties":{"name":"East Hills","dailyTaps":1137,"platformRatio":12.25,"nonPlatformRatio":54.66}},{"type":"Feature","geometry":{"type":"Point","coordinates":[151.10269428,-33.96744133]},"properties":{"name":"Hurstville","dailyTaps":30424,"platformRatio":152.53,"nonPlatformRatio":285.76}},{"type":"Feature","geometry":{"type":"Point","coordinates":[151.2061031,-33.86594489]},"properties":{"name":"Wynyard","dailyTaps":74178,"platformRatio":158.13,"nonPlatformRatio":235.06}},{"type":"Feature","geometry":{"type":"Point","coordinates":[151.16414803,-33.89447424]},"properties":{"name":"Stanmore","dailyTaps":3940,"platformRatio":40.97,"nonPlatformRatio":347.66}},{"type":"Feature","geometry":{"type":"Point","coordinates":[151.15557204,-33.89386331]},"properties":{"name":"Petersham","dailyTaps":4694,"platformRatio":48.81,"nonPlatformRatio":218.67}},{"type":"Feature","geometry":{"type":"Point","coordinates":[151.14770641,-33.89341703]},"properties":{"name":"Lewisham","dailyTaps":3607,"platformRatio":37.44,"nonPlatformRatio":510.35}},{"type":"Feature","geometry":{"type":"Point","coordinates":[151.20741233,-33.84115005]},"properties":{"name":"North Sydney","dailyTaps":15636,"platformRatio":65.17,"nonPlatformRatio":387.34}},{"type":"Feature","geometry":{"type":"Point","coordinates":[151.20738465,-33.83772725]},"properties":{"name":"Victoria Cross","dailyTaps":25281,"platformRatio":263.16,"nonPlatformRatio":383.43}},{"type":"Feature","geometry":{"type":"Point","coordinates":[151.21183697,-33.8459361]},"properties":{"name":"Milsons Point","dailyTaps":10920,"platformRatio":45.51,"nonPlatformRatio":630.02}},{"type":"Feature","geometry":{"type":"Point","coordinates":[151.19913651,-33.8256203]},"properties":{"name":"Crows Nest","dailyTaps":18845,"platformRatio":196.17,"nonPlatformRatio":248.62}},{"type":"Feature","geometry":{"type":"Point","coordinates":[151.19413439,-33.8222319]},"properties":{"name":"St Leonards","dailyTaps":15338,"platformRatio":76.29,"nonPlatformRatio":217.05}},{"type":"Feature","geometry":{"type":"Point","coordinates":[151.10494081,-33.71036513]},"properties":{"name":"Waitara","dailyTaps":4078,"platformRatio":32.77,"nonPlatformRatio":926.71}},{"type":"Feature","geometry":{"type":"Point","coordinates":[151.10820109,-33.68852348]},"properties":{"name":"Asquith","dailyTaps":1803,"platformRatio":32.35,"nonPlatformRatio":258.8}},{"type":"Feature","geometry":{"type":"Point","coordinates":[151.11469754,-33.67174586]},"properties":{"name":"Mount Colah","dailyTaps":833,"platformRatio":15.34,"nonPlatformRatio":80.39}},{"type":"Feature","geometry":{"type":"Point","coordinates":[151.13682391,-33.65358907]},"properties":{"name":"Mount Kuring-gai","dailyTaps":330,"platformRatio":6.06,"nonPlatformRatio":42.06}},{"type":"Feature","geometry":{"type":"Point","coordinates":[151.11826703,-33.77728198]},"properties":{"name":"Macquarie University","dailyTaps":23460,"platformRatio":243.7,"nonPlatformRatio":128.83}},{"type":"Feature","geometry":{"type":"Point","coordinates":[151.13798663,-33.79421813]},"properties":{"name":"North Ryde","dailyTaps":5947,"platformRatio":61.84,"nonPlatformRatio":658.36}},{"type":"Feature","geometry":{"type":"Point","coordinates":[151.12837418,-33.78507995]},"properties":{"name":"Macquarie Park","dailyTaps":7675,"platformRatio":79.73,"nonPlatformRatio":55.15}},{"type":"Feature","geometry":{"type":"Point","coordinates":[151.06660668,-33.74927233]},"properties":{"name":"Beecroft","dailyTaps":1840,"platformRatio":22.64,"nonPlatformRatio":121.31}},{"type":"Feature","geometry":{"type":"Point","coordinates":[151.07255151,-33.73791201]},"properties":{"name":"Pennant Hills","dailyTaps":2521,"platformRatio":31.02,"nonPlatformRatio":54.13}},{"type":"Feature","geometry":{"type":"Point","coordinates":[151.03199446,-33.73665917]},"properties":{"name":"Cherrybrook","dailyTaps":7612,"platformRatio":78.91,"nonPlatformRatio":274.81}},{"type":"Feature","geometry":{"type":"Point","coordinates":[151.1387028,-33.89044065]},"properties":{"name":"Summer Hill","dailyTaps":4699,"platformRatio":48.78,"nonPlatformRatio":5221.26}},{"type":"Feature","geometry":{"type":"Point","coordinates":[151.12585123,-33.88763777]},"properties":{"name":"Ashfield","dailyTaps":16448,"platformRatio":82.52,"nonPlatformRatio":310.34}},{"type":"Feature","geometry":{"type":"Point","coordinates":[151.11520613,-33.88307479]},"properties":{"name":"Croydon","dailyTaps":3066,"platformRatio":33.52,"nonPlatformRatio":1194.44}},{"type":"Feature","geometry":{"type":"Point","coordinates":[151.08619478,-33.86668795]},"properties":{"name":"Homebush","dailyTaps":5963,"platformRatio":52.97,"nonPlatformRatio":321.17}},{"type":"Feature","geometry":{"type":"Point","coordinates":[151.07017841,-33.86491214]},"properties":{"name":"Flemington","dailyTaps":8012,"platformRatio":56.29,"nonPlatformRatio":482.66}},{"type":"Feature","geometry":{"type":"Point","coordinates":[150.98789237,-33.80847754]},"properties":{"name":"Westmead","dailyTaps":9474,"platformRatio":53.09,"nonPlatformRatio":94.68}},{"type":"Feature","geometry":{"type":"Point","coordinates":[150.97236952,-33.80706891]},"properties":{"name":"Wentworthville","dailyTaps":5708,"platformRatio":56.11,"nonPlatformRatio":896.61}},{"type":"Feature","geometry":{"type":"Point","coordinates":[150.9560804,-33.80120445]},"properties":{"name":"Pendle Hill","dailyTaps":4566,"platformRatio":44.88,"nonPlatformRatio":652.32}},{"type":"Feature","geometry":{"type":"Point","coordinates":[150.90017109,-33.74609965]},"properties":{"name":"Marayong","dailyTaps":1497,"platformRatio":18.57,"nonPlatformRatio":2993}},{"type":"Feature","geometry":{"type":"Point","coordinates":[150.83003584,-33.6265162]},"properties":{"name":"Mulgrave","dailyTaps":369,"platformRatio":7.98,"nonPlatformRatio":442.6}},{"type":"Feature","geometry":{"type":"Point","coordinates":[150.78789489,-33.60858478]},"properties":{"name":"Clarendon","dailyTaps":271,"platformRatio":5.86,"nonPlatformRatio":324.96}},{"type":"Feature","geometry":{"type":"Point","coordinates":[150.85115431,-33.6503077]},"properties":{"name":"Vineyard","dailyTaps":240,"platformRatio":5.2,"nonPlatformRatio":288.2}},{"type":"Feature","geometry":{"type":"Point","coordinates":[151.19738129,-33.8376183]},"properties":{"name":"Waverton","dailyTaps":2713,"platformRatio":13.49,"nonPlatformRatio":1196.78}},{"type":"Feature","geometry":{"type":"Point","coordinates":[151.18470089,-33.80854241]},"properties":{"name":"Artarmon","dailyTaps":6125,"platformRatio":30.46,"nonPlatformRatio":15312.83}},{"type":"Feature","geometry":{"type":"Point","coordinates":[151.19174851,-33.83194479]},"properties":{"name":"Wollstonecraft","dailyTaps":2819,"platformRatio":14.02,"nonPlatformRatio":1262.01}},{"type":"Feature","geometry":{"type":"Point","coordinates":[151.18093364,-33.79723668]},"properties":{"name":"Chatswood","dailyTaps":55022,"platformRatio":185.11,"nonPlatformRatio":401.72}},{"type":"Feature","geometry":{"type":"Point","coordinates":[151.17766673,-33.78443617]},"properties":{"name":"Roseville","dailyTaps":3869,"platformRatio":20.16,"nonPlatformRatio":610.84}},{"type":"Feature","geometry":{"type":"Point","coordinates":[151.16927068,-33.77552136]},"properties":{"name":"Lindfield","dailyTaps":5554,"platformRatio":28.95,"nonPlatformRatio":477.4}},{"type":"Feature","geometry":{"type":"Point","coordinates":[151.14226141,-33.74477962]},"properties":{"name":"Pymble","dailyTaps":2900,"platformRatio":23.61,"nonPlatformRatio":517.92}},{"type":"Feature","geometry":{"type":"Point","coordinates":[151.0970721,-33.72082663]},"properties":{"name":"Normanhurst","dailyTaps":1494,"platformRatio":18.38,"nonPlatformRatio":116.71}},{"type":"Feature","geometry":{"type":"Point","coordinates":[151.07845967,-33.75561151]},"properties":{"name":"Cheltenham","dailyTaps":1131,"platformRatio":13.91,"nonPlatformRatio":161.54}},{"type":"Feature","geometry":{"type":"Point","coordinates":[151.07815508,-33.73189695]},"properties":{"name":"Thornleigh","dailyTaps":2412,"platformRatio":29.68,"nonPlatformRatio":258.47}},{"type":"Feature","geometry":{"type":"Point","coordinates":[151.06932974,-33.84659492]},"properties":{"name":"Olympic Park","dailyTaps":5178,"platformRatio":41.27,"nonPlatformRatio":56.18}},{"type":"Feature","geometry":{"type":"Point","coordinates":[151.21081302,-33.86135094]},"properties":{"name":"Circular Quay","dailyTaps":31940,"platformRatio":139.37,"nonPlatformRatio":84.44}},{"type":"Feature","geometry":{"type":"Point","coordinates":[151.21058267,-33.86764769]},"properties":{"name":"Martin Place","dailyTaps":61303,"platformRatio":212.36,"nonPlatformRatio":null}},{"type":"Feature","geometry":{"type":"Point","coordinates":[151.20994628,-33.8755711]},"properties":{"name":"Museum","dailyTaps":14041,"platformRatio":61.27,"nonPlatformRatio":null}},{"type":"Feature","geometry":{"type":"Point","coordinates":[151.21186309,-33.87062216]},"properties":{"name":"St James","dailyTaps":10854,"platformRatio":47.36,"nonPlatformRatio":69.06}},{"type":"Feature","geometry":{"type":"Point","coordinates":[151.19841906,-33.89204769]},"properties":{"name":"Redfern","dailyTaps":32330,"platformRatio":44.56,"nonPlatformRatio":1387.55}},{"type":"Feature","geometry":{"type":"Point","coordinates":[151.18569469,-33.89695934]},"properties":{"name":"Macdonaldtown","dailyTaps":1600,"platformRatio":17.5,"nonPlatformRatio":null}},{"type":"Feature","geometry":{"type":"Point","coordinates":[151.20257663,-33.90607818]},"properties":{"name":"Green Square","dailyTaps":13512,"platformRatio":86.65,"nonPlatformRatio":268.28}},{"type":"Feature","geometry":{"type":"Point","coordinates":[151.1873354,-33.92317637]},"properties":{"name":"Mascot","dailyTaps":23318,"platformRatio":149.54,"nonPlatformRatio":438.31}},{"type":"Feature","geometry":{"type":"Point","coordinates":[151.18065972,-33.93362984]},"properties":{"name":"Domestic","dailyTaps":12398,"platformRatio":79.51,"nonPlatformRatio":null}},{"type":"Feature","geometry":{"type":"Point","coordinates":[151.16584068,-33.93497091]},"properties":{"name":"International","dailyTaps":7905,"platformRatio":50.7,"nonPlatformRatio":null}},{"type":"Feature","geometry":{"type":"Point","coordinates":[151.1854959,-33.90018265]},"properties":{"name":"Erskineville","dailyTaps":3322,"platformRatio":38.25,"nonPlatformRatio":null}},{"type":"Feature","geometry":{"type":"Point","coordinates":[151.18074263,-33.90727298]},"properties":{"name":"St Peters","dailyTaps":3766,"platformRatio":43.37,"nonPlatformRatio":101.06}},{"type":"Feature","geometry":{"type":"Point","coordinates":[151.16652644,-33.91445896]},"properties":{"name":"Sydenham","dailyTaps":32560,"platformRatio":111.37,"nonPlatformRatio":274.77}},{"type":"Feature","geometry":{"type":"Point","coordinates":[151.15660038,-33.92390407]},"properties":{"name":"Tempe","dailyTaps":1938,"platformRatio":29.52,"nonPlatformRatio":null}},{"type":"Feature","geometry":{"type":"Point","coordinates":[151.16184659,-33.76569908]},"properties":{"name":"Killara","dailyTaps":2864,"platformRatio":16.57,"nonPlatformRatio":1245.28}},{"type":"Feature","geometry":{"type":"Point","coordinates":[151.15444755,-33.75591148]},"properties":{"name":"Gordon","dailyTaps":9327,"platformRatio":51.31,"nonPlatformRatio":363.87}},{"type":"Feature","geometry":{"type":"Point","coordinates":[151.12863644,-33.73258635]},"properties":{"name":"Turramurra","dailyTaps":5050,"platformRatio":40.55,"nonPlatformRatio":256.78}},{"type":"Feature","geometry":{"type":"Point","coordinates":[151.12182775,-33.72439856]},"properties":{"name":"Warrawee","dailyTaps":1187,"platformRatio":9.66,"nonPlatformRatio":null}},{"type":"Feature","geometry":{"type":"Point","coordinates":[151.1175449,-33.71804522]},"properties":{"name":"Wahroonga","dailyTaps":2442,"platformRatio":19.89,"nonPlatformRatio":939.27}},{"type":"Feature","geometry":{"type":"Point","coordinates":[151.17177424,-33.59356714]},"properties":{"name":"Cowan","dailyTaps":88,"platformRatio":3.77,"nonPlatformRatio":40.48}},{"type":"Feature","geometry":{"type":"Point","coordinates":[151.22657548,-33.54684344]},"properties":{"name":"Hawkesbury River","dailyTaps":376,"platformRatio":16.19,"nonPlatformRatio":173.57}},{"type":"Feature","geometry":{"type":"Point","coordinates":[151.08818062,-33.85918843]},"properties":{"name":"North Strathfield","dailyTaps":3894,"platformRatio":48.63,"nonPlatformRatio":6489.94}},{"type":"Feature","geometry":{"type":"Point","coordinates":[151.08562376,-33.84860505]},"properties":{"name":"Concord West","dailyTaps":2750,"platformRatio":34.34,"nonPlatformRatio":41246.5}},{"type":"Feature","geometry":{"type":"Point","coordinates":[151.01694198,-33.83595319]},"properties":{"name":"Clyde","dailyTaps":1463,"platformRatio":12.07,"nonPlatformRatio":null}},{"type":"Feature","geometry":{"type":"Point","coordinates":[151.02427803,-33.89258874]},"properties":{"name":"Birrong","dailyTaps":607,"platformRatio":7.99,"nonPlatformRatio":null}},{"type":"Feature","geometry":{"type":"Point","coordinates":[151.00765002,-33.82335268]},"properties":{"name":"Harris Park","dailyTaps":4278,"platformRatio":36.36,"nonPlatformRatio":null}},{"type":"Feature","geometry":{"type":"Point","coordinates":[150.96098356,-33.88445193]},"properties":{"name":"Carramar","dailyTaps":857,"platformRatio":17.56,"nonPlatformRatio":null}},{"type":"Feature","geometry":{"type":"Point","coordinates":[150.91182891,-33.95021052]},"properties":{"name":"Casula","dailyTaps":550,"platformRatio":4.86,"nonPlatformRatio":null}},{"type":"Feature","geometry":{"type":"Point","coordinates":[151.15411287,-33.92853822]},"properties":{"name":"Wolli Creek","dailyTaps":13309,"platformRatio":38.02,"nonPlatformRatio":1353.46}},{"type":"Feature","geometry":{"type":"Point","coordinates":[151.147174,-33.93678246]},"properties":{"name":"Arncliffe","dailyTaps":3664,"platformRatio":54.84,"nonPlatformRatio":779.5}},{"type":"Feature","geometry":{"type":"Point","coordinates":[151.14033853,-33.92979582]},"properties":{"name":"Turrella","dailyTaps":1438,"platformRatio":17.13,"nonPlatformRatio":269.63}},{"type":"Feature","geometry":{"type":"Point","coordinates":[151.12559243,-33.93130976]},"properties":{"name":"Bardwell Park","dailyTaps":1385,"platformRatio":16.49,"nonPlatformRatio":104.39}},{"type":"Feature","geometry":{"type":"Point","coordinates":[151.11377376,-33.93750842]},"properties":{"name":"Bexley North","dailyTaps":1822,"platformRatio":21.7,"nonPlatformRatio":null}},{"type":"Feature","geometry":{"type":"Point","coordinates":[151.10081465,-33.94048235]},"properties":{"name":"Kingsgrove","dailyTaps":3130,"platformRatio":37.28,"nonPlatformRatio":507.63}},{"type":"Feature","geometry":{"type":"Point","coordinates":[151.08086032,-33.94912063]},"properties":{"name":"Beverly Hills","dailyTaps":2779,"platformRatio":33.1,"nonPlatformRatio":261.36}},{"type":"Feature","geometry":{"type":"Point","coordinates":[151.07058514,-33.94767733]},"properties":{"name":"Narwee","dailyTaps":2546,"platformRatio":30.32,"nonPlatformRatio":146.33}},{"type":"Feature","geometry":{"type":"Point","coordinates":[151.05245738,-33.95139401]},"properties":{"name":"Riverwood","dailyTaps":4696,"platformRatio":54.25,"nonPlatformRatio":172.44}},{"type":"Feature","geometry":{"type":"Point","coordinates":[151.14058914,-33.94499641]},"properties":{"name":"Banksia","dailyTaps":2110,"platformRatio":32.12,"nonPlatformRatio":154.8}},{"type":"Feature","geometry":{"type":"Point","coordinates":[151.13661619,-33.95224818]},"properties":{"name":"Rockdale","dailyTaps":14695,"platformRatio":120.88,"nonPlatformRatio":239.59}},{"type":"Feature","geometry":{"type":"Point","coordinates":[151.13248719,-33.96254149]},"properties":{"name":"Kogarah","dailyTaps":15641,"platformRatio":128.66,"nonPlatformRatio":395.3}},{"type":"Feature","geometry":{"type":"Point","coordinates":[151.12450153,-33.96824293]},"properties":{"name":"Carlton","dailyTaps":4029,"platformRatio":48.14,"nonPlatformRatio":7110.65}},{"type":"Feature","geometry":{"type":"Point","coordinates":[151.11454867,-33.96972995]},"properties":{"name":"Allawah","dailyTaps":3724,"platformRatio":45.43,"nonPlatformRatio":6571.24}},{"type":"Feature","geometry":{"type":"Point","coordinates":[151.0888473,-33.96620899]},"properties":{"name":"Penshurst","dailyTaps":4102,"platformRatio":41.15,"nonPlatformRatio":174.56}},{"type":"Feature","geometry":{"type":"Point","coordinates":[151.08100076,-33.9710471]},"properties":{"name":"Mortdale","dailyTaps":4785,"platformRatio":43.32,"nonPlatformRatio":292.96}},{"type":"Feature","geometry":{"type":"Point","coordinates":[151.07901413,-33.9803847]},"properties":{"name":"Oatley","dailyTaps":2615,"platformRatio":34.77,"nonPlatformRatio":1089.56}},{"type":"Feature","geometry":{"type":"Point","coordinates":[151.06824108,-34.00461939]},"properties":{"name":"Como","dailyTaps":872,"platformRatio":17.4,"nonPlatformRatio":871.63}},{"type":"Feature","geometry":{"type":"Point","coordinates":[151.06464581,-34.01610952]},"properties":{"name":"Jannali","dailyTaps":3332,"platformRatio":35.51,"nonPlatformRatio":507.37}},{"type":"Feature","geometry":{"type":"Point","coordinates":[151.08526089,-34.0348695]},"properties":{"name":"Gymea","dailyTaps":2681,"platformRatio":31.97,"nonPlatformRatio":731.24}},{"type":"Feature","geometry":{"type":"Point","coordinates":[151.10209197,-34.03625439]},"properties":{"name":"Miranda","dailyTaps":5451,"platformRatio":65,"nonPlatformRatio":null}},{"type":"Feature","geometry":{"type":"Point","coordinates":[151.12202571,-34.04157831]},"properties":{"name":"Caringbah","dailyTaps":3585,"platformRatio":42.74,"nonPlatformRatio":233.26}},{"type":"Feature","geometry":{"type":"Point","coordinates":[151.14375723,-34.04754097]},"properties":{"name":"Woolooware","dailyTaps":1661,"platformRatio":19.81,"nonPlatformRatio":null}},{"type":"Feature","geometry":{"type":"Point","coordinates":[151.15149843,-34.05578475]},"properties":{"name":"Cronulla","dailyTaps":3827,"platformRatio":45.63,"nonPlatformRatio":266.37}},{"type":"Feature","geometry":{"type":"Point","coordinates":[151.07121805,-34.03497564]},"properties":{"name":"Kirrawee","dailyTaps":2587,"platformRatio":30.85,"nonPlatformRatio":null}},{"type":"Feature","geometry":{"type":"Point","coordinates":[151.25699945,-33.49214559]},"properties":{"name":"Wondabyne","dailyTaps":29,"platformRatio":1.56,"nonPlatformRatio":null}},{"type":"Feature","geometry":{"type":"Point","coordinates":[151.44885085,-33.24732964]},"properties":{"name":"Warnervale","dailyTaps":295,"platformRatio":11.46,"nonPlatformRatio":55.98}},{"type":"Feature","geometry":{"type":"Point","coordinates":[151.48708552,-33.18007088]},"properties":{"name":"Wyee","dailyTaps":310,"platformRatio":11.3,"nonPlatformRatio":87.66}},{"type":"Feature","geometry":{"type":"Point","coordinates":[151.50094658,-33.08371456]},"properties":{"name":"Dora Creek","dailyTaps":53,"platformRatio":2.2,"nonPlatformRatio":39.67}},{"type":"Feature","geometry":{"type":"Point","coordinates":[151.54212359,-33.01297684]},"properties":{"name":"Awaba","dailyTaps":29,"platformRatio":1.21,"nonPlatformRatio":15.57}},{"type":"Feature","geometry":{"type":"Point","coordinates":[151.60494259,-32.97170853]},"properties":{"name":"Booragul","dailyTaps":44,"platformRatio":1.81,"nonPlatformRatio":662.5}},{"type":"Feature","geometry":{"type":"Point","coordinates":[151.62376463,-32.94267124]},"properties":{"name":"Cockle Creek","dailyTaps":65,"platformRatio":2.66,"nonPlatformRatio":null}},{"type":"Feature","geometry":{"type":"Point","coordinates":[151.69793551,-32.94159203]},"properties":{"name":"Kotara","dailyTaps":84,"platformRatio":3.43,"nonPlatformRatio":null}},{"type":"Feature","geometry":{"type":"Point","coordinates":[151.73106539,-32.90218201]},"properties":{"name":"Waratah","dailyTaps":237,"platformRatio":0.98,"nonPlatformRatio":31.52}},{"type":"Feature","geometry":{"type":"Point","coordinates":[151.7101627,-32.88738021]},"properties":{"name":"Warabrook","dailyTaps":290,"platformRatio":1.2,"nonPlatformRatio":58.86}},{"type":"Feature","geometry":{"type":"Point","coordinates":[151.53973566,-32.72335662]},"properties":{"name":"Telarah","dailyTaps":184,"platformRatio":0.9,"nonPlatformRatio":76.5}},{"type":"Feature","geometry":{"type":"Point","coordinates":[151.58442635,-32.66831436]},"properties":{"name":"Mindaribba","dailyTaps":3,"platformRatio":0.13,"nonPlatformRatio":12.5}},{"type":"Feature","geometry":{"type":"Point","coordinates":[151.61823769,-32.765202]},"properties":{"name":"Metford","dailyTaps":92,"platformRatio":0.38,"nonPlatformRatio":16.99}},{"type":"Feature","geometry":{"type":"Point","coordinates":[151.75937291,-32.40228864]},"properties":{"name":"Dungog","dailyTaps":26,"platformRatio":0.96,"nonPlatformRatio":55.57}},{"type":"Feature","geometry":{"type":"Point","coordinates":[151.6957196,-32.49616061]},"properties":{"name":"Wallarobba","dailyTaps":3,"platformRatio":0.13,"nonPlatformRatio":12.5}},{"type":"Feature","geometry":{"type":"Point","coordinates":[151.74253302,-32.46323348]},"properties":{"name":"Wirragulla","dailyTaps":3,"platformRatio":0.13,"nonPlatformRatio":12.5}},{"type":"Feature","geometry":{"type":"Point","coordinates":[151.6499029,-32.50455904]},"properties":{"name":"Hilldale","dailyTaps":3,"platformRatio":0.13,"nonPlatformRatio":12.5}},{"type":"Feature","geometry":{"type":"Point","coordinates":[151.61847273,-32.55816744]},"properties":{"name":"Martins Creek","dailyTaps":3,"platformRatio":0.13,"nonPlatformRatio":12.5}},{"type":"Feature","geometry":{"type":"Point","coordinates":[151.61472967,-32.60213217]},"properties":{"name":"Paterson","dailyTaps":7,"platformRatio":0.27,"nonPlatformRatio":17.58}},{"type":"Feature","geometry":{"type":"Point","coordinates":[150.89138888,-34.41227335]},"properties":{"name":"North Wollongong","dailyTaps":1353,"platformRatio":27.4,"nonPlatformRatio":145.01}},{"type":"Feature","geometry":{"type":"Point","coordinates":[150.88512644,-34.43785604]},"properties":{"name":"Coniston","dailyTaps":284,"platformRatio":5.43,"nonPlatformRatio":null}},{"type":"Feature","geometry":{"type":"Point","coordinates":[150.8757555,-34.45416603]},"properties":{"name":"Lysaghts","dailyTaps":3,"platformRatio":0.17,"nonPlatformRatio":null}},{"type":"Feature","geometry":{"type":"Point","coordinates":[150.87843306,-34.46711957]},"properties":{"name":"Cringila","dailyTaps":21,"platformRatio":1.02,"nonPlatformRatio":null}},{"type":"Feature","geometry":{"type":"Point","coordinates":[150.98108007,-34.22641608]},"properties":{"name":"Stanwell Park","dailyTaps":60,"platformRatio":3.09,"nonPlatformRatio":null}},{"type":"Feature","geometry":{"type":"Point","coordinates":[150.95352385,-34.27547081]},"properties":{"name":"Wombarra","dailyTaps":23,"platformRatio":1.19,"nonPlatformRatio":null}},{"type":"Feature","geometry":{"type":"Point","coordinates":[150.94314925,-34.28967298]},"properties":{"name":"Coledale","dailyTaps":29,"platformRatio":1.54,"nonPlatformRatio":null}},{"type":"Feature","geometry":{"type":"Point","coordinates":[150.92923261,-34.30645714]},"properties":{"name":"Austinmer","dailyTaps":91,"platformRatio":4.42,"nonPlatformRatio":7.1}},{"type":"Feature","geometry":{"type":"Point","coordinates":[150.90493692,-34.37560886]},"properties":{"name":"Corrimal","dailyTaps":162,"platformRatio":6.6,"nonPlatformRatio":null}},{"type":"Feature","geometry":{"type":"Point","coordinates":[150.89644618,-34.39521697]},"properties":{"name":"Fairy Meadow","dailyTaps":139,"platformRatio":5.67,"nonPlatformRatio":null}},{"type":"Feature","geometry":{"type":"Point","coordinates":[150.84615381,-34.45457966]},"properties":{"name":"Unanderra","dailyTaps":493,"platformRatio":15.54,"nonPlatformRatio":null}},{"type":"Feature","geometry":{"type":"Point","coordinates":[150.79868137,-34.56285582]},"properties":{"name":"Albion Park","dailyTaps":351,"platformRatio":11.57,"nonPlatformRatio":319.33}},{"type":"Feature","geometry":{"type":"Point","coordinates":[150.45415753,-33.72368467]},"properties":{"name":"Hazelbrook","dailyTaps":351,"platformRatio":10.84,"nonPlatformRatio":256.9}},{"type":"Feature","geometry":{"type":"Point","coordinates":[150.33095833,-33.71207455]},"properties":{"name":"Leura","dailyTaps":553,"platformRatio":17.06,"nonPlatformRatio":414.68}},{"type":"Feature","geometry":{"type":"Point","coordinates":[150.37637161,-33.70951523]},"properties":{"name":"Wentworth Falls","dailyTaps":444,"platformRatio":13.7,"nonPlatformRatio":266.42}},{"type":"Feature","geometry":{"type":"Point","coordinates":[150.28438143,-33.63374163]},"properties":{"name":"Blackheath","dailyTaps":312,"platformRatio":11.24,"nonPlatformRatio":312.47}},{"type":"Feature","geometry":{"type":"Point","coordinates":[150.27905756,-33.50568919]},"properties":{"name":"Bell","dailyTaps":5,"platformRatio":0.38,"nonPlatformRatio":149}},{"type":"Feature","geometry":{"type":"Point","coordinates":[150.20200389,-33.47175842]},"properties":{"name":"Zig Zag","dailyTaps":7,"platformRatio":0.78,"nonPlatformRatio":null}},{"type":"Feature","geometry":{"type":"Point","coordinates":[151.20261517,-33.85957698]},"properties":{"name":"Barangaroo","dailyTaps":14141,"platformRatio":147.2,"nonPlatformRatio":601.74}},{"type":"Feature","geometry":{"type":"Point","coordinates":[151.20872206,-33.87308122]},"properties":{"name":"Gadigal","dailyTaps":34751,"platformRatio":361.24,"nonPlatformRatio":null}},{"type":"Feature","geometry":{"type":"Point","coordinates":[151.20023991,-33.89744549]},"properties":{"name":"Waterloo","dailyTaps":9947,"platformRatio":125.49,"nonPlatformRatio":249.72}},{"type":"Feature","geometry":{"type":"Point","coordinates":[151.58736646,-32.74478972]},"properties":{"name":"East Maitland","dailyTaps":38,"platformRatio":0.28,"nonPlatformRatio":17.6}},{"type":"Feature","geometry":{"type":"Point","coordinates":[151.70287731,-32.87237742]},"properties":{"name":"Sandgate","dailyTaps":24,"platformRatio":0.18,"nonPlatformRatio":null}},{"type":"Feature","geometry":{"type":"Point","coordinates":[151.56393649,-32.74167399]},"properties":{"name":"High Street","dailyTaps":25,"platformRatio":0.18,"nonPlatformRatio":null}},{"type":"Feature","geometry":{"type":"Point","coordinates":[151.45036644,-32.72052192]},"properties":{"name":"Lochinvar","dailyTaps":3,"platformRatio":0.15,"nonPlatformRatio":null}},{"type":"Feature","geometry":{"type":"Point","coordinates":[151.68414774,-32.8288879]},"properties":{"name":"Hexham","dailyTaps":13,"platformRatio":0.09,"nonPlatformRatio":null}},{"type":"Feature","geometry":{"type":"Point","coordinates":[151.66952574,-32.80905884]},"properties":{"name":"Tarro","dailyTaps":8,"platformRatio":0.06,"nonPlatformRatio":null}},{"type":"Feature","geometry":{"type":"Point","coordinates":[151.38420433,-32.68687245]},"properties":{"name":"Greta","dailyTaps":3,"platformRatio":0.15,"nonPlatformRatio":null}}]}